SCD 1                   
1 22490U 93009B   26186.19029791  .00000520  00000+0  91121-4 0  9993
2 22490  24.9693  96.4151 0041717 328.7997 165.1767 14.46126470763726
TECHSAT 1B (GO-32)      
1 25397U 98043D   26186.46803397  .00000082  00000+0  55820-4 0  9996
2 25397  99.0076 179.6883 0001882 130.3325 229.8018 14.24432096453936
SCD 2                   
1 25504U 98060A   26186.45911606  .00000437  00000+0  71151-4 0  9996
2 25504  24.9963 319.4792 0016613 316.9308  95.0772 14.45532986462978
DLR-TUBSAT              
1 25757U 99029B   26186.41153914  .00000140  00000+0  46321-4 0  9990
2 25757  98.6703 182.5158 0013108 297.1528  62.8330 14.52431865435898
TERRA                   
1 25994U 99068A   26186.59504328  .00000519  00000+0  11457-3 0  9995
2 25994  97.9445 235.4105 0002932 142.1275  18.2573 14.61118865412292
MAROC-TUBSAT            
1 27004U 01056D   26186.46830711 -.00000024  00000+0  25505-4 0  9995
2 27004  99.8093   3.6731 0020627  96.0254 291.0008 13.70263184228698
AQUA                    
1 27424U 02022A   26186.41103284  .00001072  00000+0  22270-3 0  9996
2 27424  98.4287 156.0591 0000702  91.7150  59.5464 14.62187973285936
SHIYAN-1 (SY-1)         
1 28220U 04012A   26186.18749226  .00024519  00000+0  74018-3 0  9996
2 28220  97.8683 265.4306 0004258 321.9447  38.1493 15.34258948213858
AURA                    
1 28376U 04026A   26186.40473666  .00001077  00000+0  22761-3 0  9992
2 28376  98.3425 143.0098 0001194  88.5217 271.6120 14.61358719168874
IRS-P5 (CARTOSAT-1)     
1 28649U 05017A   26186.53285697  .00001860  00000+0  19295-3 0  9993
2 28649  97.5304 208.7649 0001937  58.7320 301.4088 14.91101058146555
SINAH 1                 
1 28893U 05043D   26186.36901744  .00000491  00000+0  10257-3 0  9990
2 28893  98.2883 320.8002 0013716 215.0770 144.9530 14.64171294103183
RESURS-DK 1             
1 29228U 06021A   26186.34553578  .00002955  00000+0  17161-3 0  9994
2 29228  69.9334 292.5473 0006698 282.2262  77.8154 15.13295823105326
ARIRANG-2 (KOMPSAT-2)   
1 29268U 06031A   26186.67127583  .00000274  00000+0  59977-4 0  9992
2 29268  97.8310  10.2233 0015057  20.4461  48.0610 14.64671359 64187
LAPAN-TUBSAT            
1 29709U 07001A   26186.63752874  .00001290  00000+0  15410-3 0  9995
2 29709  98.1348 186.2782 0013354 121.7213 238.5305 14.85972709 53892
HAIYANG-1B              
1 31113U 07010A   26186.39395435  .00000131  00000+0  65401-4 0  9995
2 31113  98.3505 167.5338 0014206 142.9912 217.2255 14.31031710  3249
COSMO-SKYMED 1          
1 31598U 07023A   26186.58150485  .00002543  00000+0  22515-3 0  9998
2 31598  97.8851  18.5928 0001077  84.4412 275.6932 14.97191220 32541
TERRASAR-X              
1 31698U 07026A   26186.50311138  .00000558  00000+0  29782-4 0  9996
2 31698  97.4451 193.9490 0001828  87.3608 272.7836 15.19151661 56007
WORLDVIEW-1 (WV-1)      
1 32060U 07041A   26186.40960688  .00009238  00000+0  37871-3 0  9997
2 32060  97.3895 305.8954 0000922 277.7721  82.3412 15.24481510 45655
YAOGAN-3                
1 32289U 07055A   26186.58501227  .00004646  00000+0  47716-3 0  9991
2 32289  97.8145 216.2817 0001763  80.0048 280.1369 14.90862072  8617
COSMO-SKYMED 2          
1 32376U 07059A   26186.65891502  .00000425  00000+0  59964-4 0  9998
2 32376  97.8891   9.9892 0001349  91.3188 268.8180 14.82161220  4744
RADARSAT-2              
1 32382U 07061A   26186.58009354  .00000006  00000+0  19307-4 0  9998
2 32382  98.5778 193.2499 0001303  84.7171 275.4160 14.29981359968588
CARTOSAT-2A             
1 32783U 08021A   26186.58071064  .00001587  00000+0  21996-3 0  9998
2 32783  97.7617 234.6612 0013140  55.7757 304.4698 14.79270376981526
HUANJING 1A (HJ-1A)     
1 33320U 08041A   26186.64121778  .00001562  00000+0  19302-3 0  9994
2 33320  97.6692 171.7666 0020612  78.5954 281.7574 14.84031741961143
HUANJING 1B (HJ-1B)     
1 33321U 08041B   26186.61873878  .00001180  00000+0  14844-3 0  9999
2 33321  97.6530 174.8612 0037604 121.3533 239.1371 14.83352519961149
GEOEYE 1                
1 33331U 08042A   26186.32368784  .00000643  00000+0  12986-3 0  9992
2 33331  98.1331 260.0349 0004684  18.1356 342.0013 14.64644273952808
THEOS                   
1 33396U 08049A   26186.63963295  .00000490  00000+0  24960-3 0  9997
2 33396  98.5556 243.3237 0001118  84.9495 275.1809 14.20137335920583
COSMO-SKYMED 3          
1 33412U 08054A   26186.60188826  .00003598  00000+0  24360-3 0  9994
2 33412  97.8266  45.4767 0014986 198.2043 161.8650 15.07077059959710
GOSAT (IBUKI)           
1 33492U 09002A   26185.86571893  .00000182  00000+0  40518-4 0  9993
2 33492  98.0908 296.7269 0001143  80.0109 280.1224 14.67539504934059
DEIMOS-1                
1 35681U 09041A   26186.56737679  .00000601  00000+0  95915-4 0  9999
2 35681  97.7427 342.9998 0002542 105.5440 254.6050 14.75257187909598
