OBJECT_NAME,OBJECT_ID,EPOCH,MEAN_MOTION,ECCENTRICITY,INCLINATION,RA_OF_ASC_NODE,ARG_OF_PERICENTER,MEAN_ANOMALY,EPHEMERIS_TYPE,CLASSIFICATION_TYPE,NORAD_CAT_ID,ELEMENT_SET_NO,REV_AT_EPOCH,BSTAR,MEAN_MOTION_DOT,MEAN_MOTION_DDOT
SCD 1,1993-009B,2026-07-05T04:34:01.739424,14.46126470,.00417174,24.9693,96.4151,328.7997,165.1767,0,U,22490,999,76372,.91121049E-4,.52E-5,0
TECHSAT 1B (GO-32),1998-043D,2026-07-05T11:13:58.135008,14.24432096,.00018827,99.0076,179.6883,130.3325,229.8018,0,U,25397,999,45393,.55820262E-4,.82E-6,0
SCD 2,1998-060A,2026-07-05T11:01:07.627584,14.45532986,.00166134,24.9963,319.4792,316.9308,95.0772,0,U,25504,999,46297,.7115118E-4,.437E-5,0
DLR-TUBSAT,1999-029B,2026-07-05T09:52:36.981696,14.52431865,.00131085,98.6703,182.5158,297.1528,62.8330,0,U,25757,999,43589,.46320555E-4,.14E-5,0
TERRA,1999-068A,2026-07-05T14:16:51.739392,14.61118865,.00029321,97.9445,235.4105,142.1275,18.2573,0,U,25994,999,41229,.11456697E-3,.519E-5,0
MAROC-TUBSAT,2001-056D,2026-07-05T11:14:21.734304,13.70263184,.00206274,99.8093,3.6731,96.0254,291.0008,0,U,27004,999,22869,.2550469E-4,-.24E-6,0
AQUA,2002-022A,2026-07-05T09:51:53.237376,14.62187973,.00007025,98.4287,156.0591,91.7150,59.5464,0,U,27424,999,28593,.22269742E-3,.1072E-4,0
SHIYAN-1 (SY-1),2004-012A,2026-07-05T04:29:59.331264,15.34258948,.00042584,97.8683,265.4306,321.9447,38.1493,0,U,28220,999,21385,.74018302E-3,.24519E-3,0
AURA,2004-026A,2026-07-05T09:42:49.247424,14.61358719,.00011941,98.3425,143.0098,88.5217,271.6120,0,U,28376,999,16887,.22760827E-3,.1077E-4,0
IRS-P5 (CARTOSAT-1),2005-017A,2026-07-05T12:47:18.842208,14.91101058,.00019379,97.5304,208.7649,58.7320,301.4088,0,U,28649,999,14655,.19295455E-3,.186E-4,0
SINAH 1,2005-043D,2026-07-05T08:51:23.106816,14.64171294,.00137162,98.2883,320.8002,215.0770,144.9530,0,U,28893,999,10318,.10257238E-3,.491E-5,0
RESURS-DK 1,2006-021A,2026-07-05T08:17:34.291392,15.13295823,.00066986,69.9334,292.5473,282.2262,77.8154,0,U,29228,999,10532,.17161113E-3,.2955E-4,0
ARIRANG-2 (KOMPSAT-2),2006-031A,2026-07-05T16:06:38.231712,14.64671359,.00150571,97.8310,10.2233,20.4461,48.0610,0,U,29268,999,6418,.59977121E-4,.274E-5,0
LAPAN-TUBSAT,2007-001A,2026-07-05T15:18:02.483136,14.85972709,.00133547,98.1348,186.2782,121.7213,238.5305,0,U,29709,999,5389,.15410023E-3,.129E-4,0
HAIYANG-1B,2007-010A,2026-07-05T09:27:17.655840,14.31031710,.00142066,98.3505,167.5338,142.9912,217.2255,0,U,31113,999,324,.65401178E-4,.131E-5,0
COSMO-SKYMED 1,2007-023A,2026-07-05T13:57:22.019040,14.97191220,.00010773,97.8851,18.5928,84.4412,275.6932,0,U,31598,999,3254,.22514894E-3,.2543E-4,0
TERRASAR-X,2007-026A,2026-07-05T12:04:28.823232,15.19151661,.0001828,97.4451,193.9490,87.3608,272.7836,0,U,31698,999,5600,.29782082E-4,.558E-5,0
WORLDVIEW-1 (WV-1),2007-041A,2026-07-05T09:49:50.034432,15.24481510,.00009228,97.3895,305.8954,277.7721,82.3412,0,U,32060,999,4565,.37870712E-3,.9238E-4,0
YAOGAN-3,2007-055A,2026-07-05T14:02:25.060128,14.90862072,.00017638,97.8145,216.2817,80.0048,280.1369,0,U,32289,999,861,.47716328E-3,.4646E-4,0
COSMO-SKYMED 2,2007-059A,2026-07-05T15:48:50.257728,14.82161220,.00013492,97.8891,9.9892,91.3188,268.8180,0,U,32376,999,474,.59963924E-4,.425E-5,0
RADARSAT-2,2007-061A,2026-07-05T13:55:20.081856,14.29981359,.00013037,98.5778,193.2499,84.7171,275.4160,0,U,32382,999,96858,.19306553E-4,.6E-7,0
CARTOSAT-2A,2008-021A,2026-07-05T13:56:13.399296,14.79270376,.00131406,97.7617,234.6612,55.7757,304.4698,0,U,32783,999,98152,.21995736E-3,.1587E-4,0
HUANJING 1A (HJ-1A),2008-041A,2026-07-05T15:23:21.216192,14.84031741,.00206126,97.6692,171.7666,78.5954,281.7574,0,U,33320,999,96114,.19302311E-3,.1562E-4,0
HUANJING 1B (HJ-1B),2008-041B,2026-07-05T14:50:59.030592,14.83352519,.00376044,97.6530,174.8612,121.3533,239.1371,0,U,33321,999,96114,.14844395E-3,.118E-4,0
GEOEYE 1,2008-042A,2026-07-05T07:46:06.629376,14.64644273,.0004684,98.1331,260.0349,18.1356,342.0013,0,U,33331,999,95280,.12986E-3,.643E-5,0
THEOS,2008-049A,2026-07-05T15:21:04.286880,14.20137335,.00011189,98.5556,243.3237,84.9495,275.1809,0,U,33396,999,92058,.24959997E-3,.49E-5,0
COSMO-SKYMED 3,2008-054A,2026-07-05T14:26:43.145664,15.07077059,.00149866,97.8266,45.4767,198.2043,161.8650,0,U,33412,999,95971,.24360104E-3,.3598E-4,0
GOSAT (IBUKI),2009-002A,2026-07-04T20:46:38.114688,14.67539504,.0001144,98.0908,296.7269,80.0109,280.1224,0,U,33492,999,93405,.40518E-4,.182E-5,0
DEIMOS-1,2009-041A,2026-07-05T13:37:01.354656,14.75257187,.0002542,97.7427,342.9998,105.5440,254.6050,0,U,35681,999,90959,.95915E-4,.601E-5,0
